IRIDIUM 171             
1 43929U 19002H   25362.92614884 -.00000903  00000+0 -32956-3 0  9990
2 43929  86.3959  65.0367 0002328  91.4161 268.7301 14.34216852364559
IRIDIUM 170             
1 43930U 19002J   25362.90602404  .00001311  00000+0  20388-3 0  9993
2 43930  86.6076  64.7540 0002287  91.3136 268.8344 14.72273432374208
IRIDIUM 167             
1 43931U 19002K   25362.91980362  .00000005  00000+0 -52628-5 0  9991
2 43931  86.3949  64.7726 0002521  97.2829 262.8653 14.34217525364559
IRIDIUM 181             
1 56726U 23068S   25362.90279498  .00000618  00000+0  17769-3 0  9998
2 56726  86.4526 127.9767 0002070  82.4653 277.6783 14.43313921137872
IRIDIUM 177             
1 56727U 23068T   25362.62850617  .00001544  00000+0  19958-3 0  9997
2 56727  86.1952  49.7826 0002104  87.3067 272.8395 14.80249354141130
IRIDIUM 174             
1 56728U 23068U   25362.89369251  .00001423  00000+0  22169-3 0  9990
2 56728  86.6083  64.8894 0002051  92.8515 267.2937 14.72268752140968
IRIDIUM 178             
1 56729U 23068V   25362.75279993  .00001934  00000+0  25096-3 0  9998
2 56729  86.6542  96.6097 0002464  89.8361 270.3143 14.80250653141156
IRIDIUM 179             
1 56730U 23068W   25362.81504267  .00001930  00000+0  25048-3 0  9995
2 56730  86.6787 105.0559 0002410  89.3862 270.7636 14.80245034141168
